NORAD_CAT_ID,OBJECT_NAME,OBJECT_TYPE,EPOCH,MEAN_MOTION,ECCENTRICITY,INCLINATION,RA_OF_ASC_NODE,ARG_OF_PERICENTER,MEAN_ANOMALY,BSTAR,MEAN_MOTION_DOT,MEAN_MOTION_DDOT,TLE_LINE0,TLE_LINE1,TLE_LINE2,SEMIMAJOR_AXIS,PERIOD,APOGEE,PERIGEE,DECAYED
53741.0,STARLINK-4614,PAYLOAD,2024-01-13 14:07:31,15.08842632,0.0001546,53.2171,177.8367,92.6159,267.501,1.7797e-05,-5e-08,0.0,0 STARLINK-4614,1 53741U 22107AT  24013.58856353 -.00000005  00000-0  17797-4 0  9996,2 53741  53.2171 177.8367 0001546  92.6159 267.5010 15.08842632 76135,6917.872,95.437,540.807,538.668,0.0
53741.0,STARLINK-4614,PAYLOAD,2024-01-13 17:18:18,15.08843398,0.0001555,53.2172,177.2422,91.0877,269.0293,2.3172e-05,8.1e-07,0.0,0 STARLINK-4614,1 53741U 22107AT  24013.72104272  .00000081  00000-0  23172-4 0  9995,2 53741  53.2172 177.2422 0001555  91.0877 269.0293 15.08843398 75377,6917.87,95.437,540.811,538.659,0.0
53741.0,STARLINK-4614,PAYLOAD,2024-01-14 10:47:32,15.08838345,0.0001584,53.217,173.9709,83.6799,276.4374,2.2717e-06,-2.52e-06,0.0,0 STARLINK-4614,1 53741U 22107AT  24014.44968681 -.00000252  00000-0  22717-5 0  9993,2 53741  53.2170 173.9709 0001584  83.6799 276.4374 15.08838345 75488,6917.885,95.438,540.846,538.655,0.0
53741.0,STARLINK-4614,PAYLOAD,2024-01-14 13:58:19,15.08838837,0.0001576,53.2172,173.3764,89.1911,270.9262,9.6991e-06,-1.34e-06,0.0,0 STARLINK-4614,1 53741U 22107AT  24014.58216606 -.00000134  00000-0  96991-5 0  9995,2 53741  53.2172 173.3764 0001576  89.1911 270.9262 15.08838837 76283,6917.884,95.438,540.839,538.659,0.0
53741.0,STARLINK-4614,PAYLOAD,2024-01-14 20:19:51,15.08840222,0.0001512,53.2175,172.1866,87.3749,272.7417,1.3471e-05,-7.4e-07,0.0,0 STARLINK-4614,1 53741U 22107AT  24014.84712510 -.00000074  00000-0  13471-4 0  9993,2 53741  53.2175 172.1866 0001512  87.3749 272.7417 15.08840222 76323,6917.88,95.438,540.791,538.699,0.0
53741.0,STARLINK-4614,PAYLOAD,2024-01-15 13:49:06,15.08837235,0.0001546,53.2176,168.915,97.5454,262.5714,-3.9075e-06,-3.5e-06,0.0,0 STARLINK-4614,1 53741U 22107AT  24015.57576761 -.00000350  00000-0 -39075-5 0  9997,2 53741  53.2176 168.9150 0001546  97.5454 262.5714 15.08837235 76435,6917.889,95.438,540.823,538.684,0.0
53741.0,STARLINK-4614,PAYLOAD,2024-01-15 15:24:29,15.08837004,0.000154,53.2176,168.6176,97.909,262.2077,-6.1475e-06,-3.86e-06,0.0,0 STARLINK-4614,1 53741U 22107AT  24015.64200790 -.00000386  00000-0 -61475-5 0  9999,2 53741  53.2176 168.6176 0001540  97.9090 262.2077 15.08837004 75661,6917.89,95.438,540.82,538.689,0.0
53741.0,STARLINK-4614,PAYLOAD,2024-01-16 13:39:53,15.08836707,0.0001422,53.2174,164.4549,92.431,267.6845,9.8705e-06,-1.31e-06,0.0,0 STARLINK-4614,1 53741U 22107AT  24016.56936986 -.00000131  00000-0  98705-5 0  9997,2 53741  53.2174 164.4549 0001422  92.4310 267.6845 15.08836707 76584,6917.89,95.438,540.739,538.772,0.0
53741.0,STARLINK-4614,PAYLOAD,2024-01-16 16:50:39,15.08837354,0.000142,53.2174,163.8603,91.1923,268.9232,1.4867e-05,-5.1e-07,0.0,0 STARLINK-4614,1 53741U 22107AT  24016.70184955 -.00000051  00000-0  14867-4 0  9991,2 53741  53.2174 163.8603 0001420  91.1923 268.9232 15.08837354 75821,6917.888,95.438,540.736,538.771,0.0
53741.0,STARLINK-4614,PAYLOAD,2024-01-17 15:06:03,15.08836057,0.0001427,53.2178,159.6982,92.1395,267.976,2.9902e-05,1.88e-06,0.0,0 STARLINK-4614,1 53741U 22107AT  24017.62921219  .00000188  00000-0  29902-4 0  9991,2 53741  53.2178 159.6982 0001427  92.1395 267.9760 15.08836057 76745,6917.892,95.438,540.745,538.77,0.0
53741.0,STARLINK-4614,PAYLOAD,2024-01-17 16:41:27,15.08836857,0.0001412,53.2178,159.4011,89.0116,271.1038,3.6999e-05,3.01e-06,0.0,0 STARLINK-4614,1 53741U 22107AT  24017.69545175  .00000301  00000-0  36999-4 0  9992,2 53741  53.2178 159.4011 0001412  89.0116 271.1038 15.08836857 76750,6917.89,95.438,540.732,538.778,0.0
53741.0,STARLINK-4614,PAYLOAD,2024-01-18 08:35:18,15.08837794,0.0001446,53.2182,156.4273,83.2963,276.8194,3.086e-05,2.03e-06,0.0,0 STARLINK-4614,1 53741U 22107AT  24018.35785290  .00000203  00000-0  30860-4 0  9992,2 53741  53.2182 156.4273 0001446  83.2963 276.8194 15.08837794 76076,6917.887,95.438,540.752,538.752,0.0
53741.0,STARLINK-4614,PAYLOAD,2024-01-18 13:21:27,15.08838298,0.0001447,53.2183,155.5354,83.8147,276.301,3.4672e-05,2.64e-06,0.0,0 STARLINK-4614,1 53741U 22107AT  24018.55657259  .00000264  00000-0  34672-4 0  9999,2 53741  53.2183 155.5354 0001447  83.8147 276.3010 15.08838298 76889,6917.886,95.438,540.752,538.75,0.0
53741.0,STARLINK-4614,PAYLOAD,2024-01-18 16:32:14,15.08838818,0.0001437,53.218,154.9407,78.5518,281.5636,3.6428e-05,2.92e-06,0.0,0 STARLINK-4614,1 53741U 22107AT  24018.68905250  .00000292  00000-0  36428-4 0  9992,2 53741  53.2180 154.9407 0001437  78.5518 281.5636 15.08838818 76903,6917.884,95.438,540.743,538.755,0.0
53741.0,STARLINK-4614,PAYLOAD,2024-01-19 08:26:02,15.08865779,0.0001383,53.2176,151.9672,67.9158,292.198,0.00022214,3.252e-05,0.0,0 STARLINK-4614,1 53741U 22107AT  24019.35142228  .00003252  00000-0  22214-3 0  9991,2 53741  53.2176 151.9672 0001383  67.9158 292.1980 15.08865779 76222,6917.802,95.436,540.623,538.71,0.0
53741.0,STARLINK-4614,PAYLOAD,2024-01-19 14:47:36,15.08848473,0.0001367,53.2179,150.7768,66.8441,293.2695,6.6921e-05,7.78e-06,0.0,0 STARLINK-4614,1 53741U 22107AT  24019.61639520  .00000778  00000-0  66921-4 0  9990,2 53741  53.2179 150.7768 0001367  66.8441 293.2695 15.08848473 77041,6917.854,95.437,540.665,538.774,0.0
53741.0,STARLINK-4614,PAYLOAD,2024-01-19 16:23:00,15.0884007,0.0001393,53.2178,150.4812,73.2745,286.84,-7.0885e-06,-4.01e-06,0.0,0 STARLINK-4614,1 53741U 22107AT  24019.68264194 -.00000401  00000-0 -70885-5 0  9998,2 53741  53.2178 150.4812 0001393  73.2745 286.8400 15.08840070 76276,6917.88,95.438,540.709,538.782,0.0
53741.0,STARLINK-4614,PAYLOAD,2024-01-20 08:16:52,15.08830942,0.0001452,53.2184,147.5104,58.9407,301.1727,-3.1004e-05,-7.81e-06,0.0,0 STARLINK-4614,1 53741U 22107AT  24020.34504887 -.00000781  00000-0 -31004-4 0  9999,2 53741  53.2184 147.5104 0001452  58.9407 301.1727 15.08830942 76376,6917.908,95.438,540.778,538.769,0.0
53741.0,STARLINK-4614,PAYLOAD,2024-01-20 14:38:24,15.0883091,0.0001611,53.2179,146.3192,69.6397,290.4769,-6.1986e-05,-1.274e-05,0.0,0 STARLINK-4614,1 53741U 22107AT  24020.61001130 -.00001274  00000-0 -61986-4 0  9992,2 53741  53.2179 146.3192 0001611  69.6397 290.4769 15.08830910 77190,6917.908,95.438,540.888,538.659,0.0
53741.0,STARLINK-4614,PAYLOAD,2024-01-20 17:49:10,15.08836742,0.0001405,53.2175,145.7227,71.784,288.3305,-6.3898e-05,-1.305e-05,0.0,0 STARLINK-4614,1 53741U 22107AT  24020.74248746 -.00001305  00000-0 -63898-4 0  9991,2 53741  53.2175 145.7227 0001405  71.7840 288.3305 15.08836742 77210,6917.89,95.438,540.727,538.783,0.0
53741.0,STARLINK-4614,PAYLOAD,2024-01-21 12:53:48,15.08866997,0.0001581,53.2173,142.1544,83.1276,276.9896,-0.00048444,-7.995e-05,0.0,0 STARLINK-4614,1 53741U 22107AT  24021.53736319 -.00007995  00000-0 -48444-3 0  9997,2 53741  53.2173 142.1544 0001581  83.1276 276.9896 15.08866997 76555,6917.798,95.436,540.757,538.569,0.0
53741.0,STARLINK-4614,PAYLOAD,2024-01-21 17:39:57,15.08843213,0.0001483,53.2178,141.2608,90.874,269.2422,-0.00015362,-2.732e-05,0.0,0 STARLINK-4614,1 53741U 22107AT  24021.73608559 -.00002732  00000-0 -15362-3 0  9990,2 53741  53.2178 141.2608 0001483  90.8740 269.2422 15.08843213 76582,6917.871,95.437,540.761,538.71,0.0
53741.0,STARLINK-4614,PAYLOAD,2024-01-22 11:09:12,15.08831683,0.0001438,53.2179,137.9897,92.8134,267.3023,5.4822e-05,5.84e-06,0.0,0 STARLINK-4614,1 53741U 22107AT  24022.46473084  .00000584  00000-0  54822-4 0  9990,2 53741  53.2179 137.9897 0001438  92.8134 267.3023 15.08831683 76690,6917.906,95.438,540.766,538.776,0.0
53741.0,STARLINK-4614,PAYLOAD,2024-01-22 14:19:59,15.08832528,0.0001453,53.2181,137.3951,89.4217,270.6941,5.8187e-05,6.38e-06,0.0,0 STARLINK-4614,1 53741U 22107AT  24022.59721103  .00000638  00000-0  58187-4 0  9990,2 53741  53.2181 137.3951 0001453  89.4217 270.6941 15.08832528 77493,6917.903,95.438,540.773,538.763,0.0
53741.0,STARLINK-4614,PAYLOAD,2024-01-23 12:35:23,15.0883442,0.000144,53.218,133.2331,88.6023,271.5134,3.6889e-05,2.99e-06,0.0,0 STARLINK-4614,1 53741U 22107AT  24023.52457526  .00000299  00000-0  36889-4 0  9997,2 53741  53.2180 133.2331 0001440  88.6023 271.5134 15.08834420 76857,6917.897,95.438,540.759,538.766,0.0
53741.0,STARLINK-4614,PAYLOAD,2024-01-24 12:26:10,15.08835481,0.0001576,53.2186,128.7756,105.1756,254.9411,2.1346e-05,5.2e-07,0.0,0 STARLINK-4614,1 53741U 22107AT  24024.51817771  .00000052  00000-0  21346-4 0  9998,2 53741  53.2186 128.7756 0001576 105.1756 254.9411 15.08835481 77785,6917.894,95.438,540.849,538.669,0.0
53741.0,STARLINK-4614,PAYLOAD,2024-01-25 12:16:57,15.08836547,0.000164,53.2183,124.3143,113.4983,246.6181,1.7115e-05,-1.6e-07,0.0,0 STARLINK-4614,1 53741U 22107AT  24025.51177930 -.00000016  00000-0  17115-4 0  9995,2 53741  53.2183 124.3143 0001640 113.4983 246.6181 15.08836547 77157,6917.891,95.438,540.89,538.621,0.0
53741.0,STARLINK-4614,PAYLOAD,2024-01-25 13:52:20,15.08837068,0.0001382,53.2176,124.0148,90.4418,269.6733,1.8962e-05,1.4e-07,0.0,0 STARLINK-4614,1 53741U 22107AT  24025.57801976  .00000014  00000-0  18962-4 0  9993,2 53741  53.2176 124.0148 0001382  90.4418 269.6733 15.08837068 77945,6917.889,95.438,540.71,538.798,0.0
53741.0,STARLINK-4614,PAYLOAD,2024-01-26 13:43:07,15.08837908,0.0001395,53.2176,119.5534,84.9406,275.1745,4.0739e-05,3.6e-06,0.0,0 STARLINK-4614,1 53741U 22107AT  24026.57162020  .00000360  00000-0  40739-4 0  9995,2 53741  53.2176 119.5534 0001395  84.9406 275.1745 15.08837908 78097,6917.887,95.438,540.717,538.787,0.0
53741.0,STARLINK-4614,PAYLOAD,2024-01-27 13:33:55,15.08840347,0.0001479,53.2177,115.0939,77.088,283.0278,4.1698e-05,3.76e-06,0.0,0 STARLINK-4614,1 53741U 22107AT  24027.56522016  .00000376  00000-0  41698-4 0  9992,2 53741  53.2177 115.0939 0001479  77.0880 283.0278 15.08840347 78247,6917.879,95.438,540.767,538.721,0.0
